{
  "norad_id": 66580,
  "name": "STARLINK-35872",
  "history": [
    {
      "epoch": "2026-03-28T17:34:22.597536Z",
      "apogee_km": 484.8691318979745,
      "perigee_km": 481.12597133199597,
      "latitude_deg": 9.293331703338202e-06,
      "longitude_deg": 149.64032249427382,
      "height_km": 483.5584345577421,
      "semi_major_axis_km": 6861.134551614985,
      "eccentricity": 0.00027278,
      "inclination_deg": 42.9995,
      "raan_deg": 239.3829,
      "arg_perigee_deg": 245.2506,
      "mean_anomaly_deg": 114.8062,
      "mean_motion_rev_day": 15.27597214
    },
    {
      "epoch": "2026-03-29T02:59:19.783392Z",
      "apogee_km": 483.60893679716355,
      "perigee_km": 482.469432656404,
      "latitude_deg": 7.184932729479914e-06,
      "longitude_deg": 5.799349150214612,
      "height_km": 482.4265748130973,
      "semi_major_axis_km": 6861.1761847267835,
      "eccentricity": 8.304e-05,
      "inclination_deg": 42.9987,
      "raan_deg": 237.1669,
      "arg_perigee_deg": 312.9933,
      "mean_anomaly_deg": 47.0849,
      "mean_motion_rev_day": 15.2758331
    },
    {
      "epoch": "2026-03-30T10:22:28.103808Z",
      "apogee_km": 483.39912760381594,
      "perigee_km": 482.6523586508529,
      "latitude_deg": 6.783533236472174e-06,
      "longitude_deg": -113.66458135370509,
      "height_km": 483.1730726766556,
      "semi_major_axis_km": 6861.162743127334,
      "eccentricity": 5.442e-05,
      "inclination_deg": 42.9966,
      "raan_deg": 229.7766,
      "arg_perigee_deg": 184.3423,
      "mean_anomaly_deg": 175.7424,
      "mean_motion_rev_day": 15.27587799
    },
    {
      "epoch": "2026-03-30T16:39:05.676480Z",
      "apogee_km": 484.39091713638663,
      "perigee_km": 481.6557841742024,
      "latitude_deg": 3.352222675030041e-05,
      "longitude_deg": 150.44970317699745,
      "height_km": 482.53658955864165,
      "semi_major_axis_km": 6861.160350655295,
      "eccentricity": 0.00019932,
      "inclination_deg": 43.0037,
      "raan_deg": 228.3052,
      "arg_perigee_deg": 281.1453,
      "mean_anomaly_deg": 78.9175,
      "mean_motion_rev_day": 15.27588598
    },
    {
      "epoch": "2026-03-31T16:11:25.973952Z",
      "apogee_km": 484.0580483860613,
      "perigee_km": 481.8885653070365,
      "latitude_deg": 3.2613713564783226e-06,
      "longitude_deg": 150.85678820155943,
      "height_km": 482.832734816517,
      "semi_major_axis_km": 6861.110306846549,
      "eccentricity": 0.0001581,
      "inclination_deg": 42.9983,
      "raan_deg": 222.7636,
      "arg_perigee_deg": 265.623,
      "mean_anomaly_deg": 94.4441,
      "mean_motion_rev_day": 15.27605311
    },
    {
      "epoch": "2026-04-01T15:43:47.342784Z",
      "apogee_km": 483.9121573395423,
      "perigee_km": 482.2284170712619,
      "latitude_deg": -3.361503559471263e-05,
      "longitude_deg": 151.26178990875204,
      "height_km": 482.5268575216856,
      "semi_major_axis_km": 6861.207287205402,
      "eccentricity": 0.0001227,
      "inclination_deg": 43.0006,
      "raan_deg": 217.2244,
      "arg_perigee_deg": 292.342,
      "mean_anomaly_deg": 67.7301,
      "mean_motion_rev_day": 15.27572923
    },
    {
      "epoch": "2026-04-02T15:16:07.500288Z",
      "apogee_km": 483.6831434557171,
      "perigee_km": 482.17384626815783,
      "latitude_deg": -3.491587698274236e-05,
      "longitude_deg": 151.67479017421826,
      "height_km": 482.35853545366666,
      "semi_major_axis_km": 6861.065494861938,
      "eccentricity": 0.00010999,
      "inclination_deg": 42.998,
      "raan_deg": 211.6881,
      "arg_perigee_deg": 297.3005,
      "mean_anomaly_deg": 62.7734,
      "mean_motion_rev_day": 15.27620277
    },
    {
      "epoch": "2026-04-03T14:48:28.323072Z",
      "apogee_km": 485.7751322606455,
      "perigee_km": 480.56602754598316,
      "latitude_deg": -5.2181726860523e-05,
      "longitude_deg": 152.080293176372,
      "height_km": 482.33654645682947,
      "semi_major_axis_km": 6861.307579903314,
      "eccentricity": 0.0003796,
      "inclination_deg": 43.0038,
      "raan_deg": 206.1471,
      "arg_perigee_deg": 283.6079,
      "mean_anomaly_deg": 76.4349,
      "mean_motion_rev_day": 15.2753943
    },
    {
      "epoch": "2026-04-04T14:20:50.292384Z",
      "apogee_km": 486.86310752458303,
      "perigee_km": 479.06066587062924,
      "latitude_deg": -3.3081875439803473e-07,
      "longitude_deg": 152.48307878606425,
      "height_km": 481.66856272481925,
      "semi_major_axis_km": 6861.098886697606,
      "eccentricity": 0.0005686,
      "inclination_deg": 43.0009,
      "raan_deg": 200.6081,
      "arg_perigee_deg": 285.957,
      "mean_anomaly_deg": 74.0655,
      "mean_motion_rev_day": 15.27609125
    },
    {
      "epoch": "2026-04-05T13:53:12.577056Z",
      "apogee_km": 483.4976712450316,
      "perigee_km": 482.7003956179469,
      "latitude_deg": -1.5752959407570124e-05,
      "longitude_deg": 152.8848742411969,
      "height_km": 482.7988040849589,
      "semi_major_axis_km": 6861.236033431489,
      "eccentricity": 5.81e-05,
      "inclination_deg": 43.0003,
      "raan_deg": 195.0695,
      "arg_perigee_deg": 281.0265,
      "mean_anomaly_deg": 79.0521,
      "mean_motion_rev_day": 15.27563323
    },
    {
      "epoch": "2026-04-06T07:08:55.478976Z",
      "apogee_km": 483.2582624349061,
      "perigee_km": 482.68453655054145,
      "latitude_deg": 4.276195019911288e-06,
      "longitude_deg": -110.8134856423897,
      "height_km": 482.630008223978,
      "semi_major_axis_km": 6861.108399492724,
      "eccentricity": 4.181e-05,
      "inclination_deg": 43.0036,
      "raan_deg": 191.0088,
      "arg_perigee_deg": 294.2003,
      "mean_anomaly_deg": 65.8805,
      "mean_motion_rev_day": 15.27605948
    },
    {
      "epoch": "2026-04-07T12:57:52.179264Z",
      "apogee_km": 483.09982929791386,
      "perigee_km": 482.81372168747566,
      "latitude_deg": -4.221714040414799e-06,
      "longitude_deg": 153.70816142471242,
      "height_km": 482.6602608553462,
      "semi_major_axis_km": 6861.0937754926945,
      "eccentricity": 2.085e-05,
      "inclination_deg": 43.0039,
      "raan_deg": 183.9912,
      "arg_perigee_deg": 300.4725,
      "mean_anomaly_deg": 59.6106,
      "mean_motion_rev_day": 15.27610832
    },
    {
      "epoch": "2026-04-08T14:00:04.999680Z",
      "apogee_km": 484.0410962760807,
      "perigee_km": 482.22436927623494,
      "latitude_deg": -11.18213359890954,
      "longitude_deg": 119.06772912149263,
      "height_km": 484.6673025414288,
      "semi_major_axis_km": 6861.269732776157,
      "eccentricity": 0.00013239,
      "inclination_deg": 43.0,
      "raan_deg": 178.1026,
      "arg_perigee_deg": 277.0992,
      "mean_anomaly_deg": 66.5455,
      "mean_motion_rev_day": 15.27552069
    },
    {
      "epoch": "2026-04-09T12:02:34.671552Z",
      "apogee_km": 484.00836152611555,
      "perigee_km": 482.12358906880127,
      "latitude_deg": 4.029840039997023e-05,
      "longitude_deg": 154.5192077401631,
      "height_km": 482.7955748836475,
      "semi_major_axis_km": 6861.202975297459,
      "eccentricity": 0.00013735,
      "inclination_deg": 43.0014,
      "raan_deg": 172.9127,
      "arg_perigee_deg": 272.8732,
      "mean_anomaly_deg": 87.1963,
      "mean_motion_rev_day": 15.27574363
    },
    {
      "epoch": "2026-04-10T11:34:55.236000Z",
      "apogee_km": 483.9391356299029,
      "perigee_km": 482.01939529882566,
      "latitude_deg": -4.8448034688642056e-05,
      "longitude_deg": 154.9281110449014,
      "height_km": 482.6869206320765,
      "semi_major_axis_km": 6861.116265464364,
      "eccentricity": 0.0001399,
      "inclination_deg": 43.0008,
      "raan_deg": 167.3741,
      "arg_perigee_deg": 274.1309,
      "mean_anomaly_deg": 85.9382,
      "mean_motion_rev_day": 15.27603321
    },
    {
      "epoch": "2026-04-11T20:32:11.839776Z",
      "apogee_km": 484.03991975087865,
      "perigee_km": 482.007643927298,
      "latitude_deg": 8.510670663317014e-06,
      "longitude_deg": 11.502088990344104,
      "height_km": 482.79679771948616,
      "semi_major_axis_km": 6861.160781839088,
      "eccentricity": 0.0001481,
      "inclination_deg": 42.9992,
      "raan_deg": 159.6206,
      "arg_perigee_deg": 270.2065,
      "mean_anomaly_deg": 89.8617,
      "mean_motion_rev_day": 15.27588454
    },
    {
      "epoch": "2026-04-13T03:55:19.700544Z",
      "apogee_km": 483.9498083197159,
      "perigee_km": 482.1328310770932,
      "latitude_deg": -2.027513049228069e-07,
      "longitude_deg": -107.9561315177668,
      "height_km": 482.704284875241,
      "semi_major_axis_km": 6861.178319698404,
      "eccentricity": 0.00013241,
      "inclination_deg": 42.9982,
      "raan_deg": 152.2341,
      "arg_perigee_deg": 277.1756,
      "mean_anomaly_deg": 82.8945,
      "mean_motion_rev_day": 15.27582597
    },
    {
      "epoch": "2026-04-14T19:09:14.569920Z",
      "apogee_km": 484.01805469438204,
      "perigee_km": 482.0653632338099,
      "latitude_deg": -1.0071927616740232e-05,
      "longitude_deg": 12.721740037874817,
      "height_km": 482.6808114186787,
      "semi_major_axis_km": 6861.178708964096,
      "eccentricity": 0.0001423,
      "inclination_deg": 43.0007,
      "raan_deg": 143.0018,
      "arg_perigee_deg": 278.1081,
      "mean_anomaly_deg": 81.9609,
      "mean_motion_rev_day": 15.27582467
    },
    {
      "epoch": "2026-04-15T09:16:38.691552Z",
      "apogee_km": 483.9444327902338,
      "perigee_km": 482.0813561478908,
      "latitude_deg": -1.4784213838872144e-05,
      "longitude_deg": 156.9680032131792,
      "height_km": 482.6727284455246,
      "semi_major_axis_km": 6861.149894469062,
      "eccentricity": 0.00013577,
      "inclination_deg": 42.9995,
      "raan_deg": 139.6786,
      "arg_perigee_deg": 277.202,
      "mean_anomaly_deg": 82.8677,
      "mean_motion_rev_day": 15.2759209
    }
  ]
}